SL-16 R/B               
1 25407U 98045B   26066.31291967  .00000027  00000+0  37611-4 0  9992
2 25407  71.0113 186.5715 0006599  11.8050 348.3226 14.16189421426760
ISS (ZARYA)             
1 25544U 98067A   26066.25459274  .00014982  00000+0  28421-3 0  9991
2 25544  51.6318  84.3952 0008142 166.2106 193.9106 15.48501510555952
CZ-4B R/B               
1 25732U 99025C   26066.12581470  .00000051  00000+0  45517-4 0  9993
2 25732  98.6631 110.4680 0036891 354.0366  67.6719 14.18264762387801
OKEAN-O                 
1 25860U 99039A   26066.15101618  .00000824  00000+0  11497-3 0  9992
2 25860  97.9447 126.0683 0001314  69.7797 290.3556 14.80330216434013
SL-16 R/B               
1 25861U 99039B   26066.13327100  .00000692  00000+0  94513-4 0  9991
2 25861  97.9971 125.2338 0013465 265.2812  94.6862 14.81726893436484
DELTA 2 R/B             
1 25876U 99041E   26066.03481821  .00001232  00000+0  23640-3 0  9993
2 25876  51.7637 311.8847 0502343 340.6027  17.6374 14.11828961362651
HELIOS 1B               
1 25977U 99064A   26066.29252576  .00002657  00000+0  29809-3 0  9996
2 25977  98.1697 328.4657 0002478  77.9627 282.1866 14.87688391684901
TERRA                   
1 25994U 99068A   26066.24613716  .00000623  00000+0  13605-3 0  9999
2 25994  97.9598 119.7742 0002550 157.5114 244.7596 14.61011856394720
SL-16 R/B               
1 26070U 00006B   26066.32772154  .00000024  00000+0  36571-4 0  9993
2 26070  71.0011 102.8044 0016945 193.5658 166.5012 14.15825740348225
TITAN 4B R/B            
1 26474U 00047B   26066.31124520  .00006360  00000+0  39672-3 0  9996
2 26474  67.9897  47.1978 0038391  38.2167 322.1692 15.09534346392557
ENVISAT                 
1 27386U 02009A   26066.33711872  .00000214  00000+0  83088-4 0  9996
2 27386  98.3726  19.9905 0001333  83.9642  78.8103 14.39036054258836
IDEFIX & ARIANE 42P R/B 
1 27422U 02021B   26066.25842355  .00000434  00000+0  18128-3 0  9999
2 27422  98.5867   4.8938 0011431 189.4278 170.6692 14.31024334243671
