CCSDS_OMM_VERS = 2.0
CREATION_DATE  = 
ORIGINATOR     = 

OBJECT_NAME    = SL-16 R/B
OBJECT_ID      = 1998-045B
CENTER_NAME    = EARTH
REF_FRAME      = TEME
TIME_SYSTEM    = UTC
MEAN_ELEMENT_THEORY = SGP/SGP4

EPOCH          = 2026-03-07T07:30:36.259488
MEAN_MOTION    = 14.16189421
ECCENTRICITY   = .00065999
INCLINATION    = 71.0113
RA_OF_ASC_NODE = 186.5715
ARG_OF_PERICENTER = 11.8050
MEAN_ANOMALY   = 348.3226

EPHEMERIS_TYPE = 0
CLASSIFICATION_TYPE = U
NORAD_CAT_ID   = 25407
ELEMENT_SET_NO = 999
REV_AT_EPOCH   = 42676
BSTAR          = .37610931E-4
MEAN_MOTION_DOT = .27E-6
MEAN_MOTION_DDOT = 0

CCSDS_OMM_VERS = 2.0
CREATION_DATE  = 
ORIGINATOR     = 

OBJECT_NAME    = ISS (ZARYA)
OBJECT_ID      = 1998-067A
CENTER_NAME    = EARTH
REF_FRAME      = TEME
TIME_SYSTEM    = UTC
MEAN_ELEMENT_THEORY = SGP/SGP4

EPOCH          = 2026-03-07T06:06:36.812736
MEAN_MOTION    = 15.48501510
ECCENTRICITY   = .00081427
INCLINATION    = 51.6318
RA_OF_ASC_NODE = 84.3952
ARG_OF_PERICENTER = 166.2106
MEAN_ANOMALY   = 193.9106

EPHEMERIS_TYPE = 0
CLASSIFICATION_TYPE = U
NORAD_CAT_ID   = 25544
ELEMENT_SET_NO = 999
REV_AT_EPOCH   = 55595
BSTAR          = .28420598E-3
MEAN_MOTION_DOT = .14982E-3
MEAN_MOTION_DDOT = 0

CCSDS_OMM_VERS = 2.0
CREATION_DATE  = 
ORIGINATOR     = 

OBJECT_NAME    = CZ-4B R/B
OBJECT_ID      = 1999-025C
CENTER_NAME    = EARTH
REF_FRAME      = TEME
TIME_SYSTEM    = UTC
MEAN_ELEMENT_THEORY = SGP/SGP4

EPOCH          = 2026-03-07T03:01:10.390080
MEAN_MOTION    = 14.18264762
ECCENTRICITY   = .00368917
INCLINATION    = 98.6631
RA_OF_ASC_NODE = 110.4680
ARG_OF_PERICENTER = 354.0366
MEAN_ANOMALY   = 67.6719

EPHEMERIS_TYPE = 0
CLASSIFICATION_TYPE = U
NORAD_CAT_ID   = 25732
ELEMENT_SET_NO = 999
REV_AT_EPOCH   = 38780
BSTAR          = .45517413E-4
MEAN_MOTION_DOT = .51E-6
MEAN_MOTION_DDOT = 0

CCSDS_OMM_VERS = 2.0
CREATION_DATE  = 
ORIGINATOR     = 

OBJECT_NAME    = OKEAN-O
OBJECT_ID      = 1999-039A
CENTER_NAME    = EARTH
REF_FRAME      = TEME
TIME_SYSTEM    = UTC
MEAN_ELEMENT_THEORY = SGP/SGP4

EPOCH          = 2026-03-07T03:37:27.797952
MEAN_MOTION    = 14.80330216
ECCENTRICITY   = .00013143
INCLINATION    = 97.9447
RA_OF_ASC_NODE = 126.0683
ARG_OF_PERICENTER = 69.7797
MEAN_ANOMALY   = 290.3556

EPHEMERIS_TYPE = 0
CLASSIFICATION_TYPE = U
NORAD_CAT_ID   = 25860
ELEMENT_SET_NO = 999
REV_AT_EPOCH   = 43401
BSTAR          = .11497174E-3
MEAN_MOTION_DOT = .824E-5
MEAN_MOTION_DDOT = 0

CCSDS_OMM_VERS = 2.0
CREATION_DATE  = 
ORIGINATOR     = 

OBJECT_NAME    = SL-16 R/B
OBJECT_ID      = 1999-039B
CENTER_NAME    = EARTH
REF_FRAME      = TEME
TIME_SYSTEM    = UTC
MEAN_ELEMENT_THEORY = SGP/SGP4

EPOCH          = 2026-03-07T03:11:54.614400
MEAN_MOTION    = 14.81726893
ECCENTRICITY   = .00134659
INCLINATION    = 97.9971
RA_OF_ASC_NODE = 125.2338
ARG_OF_PERICENTER = 265.2812
MEAN_ANOMALY   = 94.6862

EPHEMERIS_TYPE = 0
CLASSIFICATION_TYPE = U
NORAD_CAT_ID   = 25861
ELEMENT_SET_NO = 999
REV_AT_EPOCH   = 43648
BSTAR          = .94513087E-4
MEAN_MOTION_DOT = .692E-5
MEAN_MOTION_DDOT = 0

CCSDS_OMM_VERS = 2.0
CREATION_DATE  = 
ORIGINATOR     = 

OBJECT_NAME    = DELTA 2 R/B
OBJECT_ID      = 1999-041E
CENTER_NAME    = EARTH
REF_FRAME      = TEME
TIME_SYSTEM    = UTC
MEAN_ELEMENT_THEORY = SGP/SGP4

EPOCH          = 2026-03-07T00:50:08.293344
MEAN_MOTION    = 14.11828961
ECCENTRICITY   = .05023431
INCLINATION    = 51.7637
RA_OF_ASC_NODE = 311.8847
ARG_OF_PERICENTER = 340.6027
MEAN_ANOMALY   = 17.6374

EPHEMERIS_TYPE = 0
CLASSIFICATION_TYPE = U
NORAD_CAT_ID   = 25876
ELEMENT_SET_NO = 999
REV_AT_EPOCH   = 36265
BSTAR          = .23639588E-3
MEAN_MOTION_DOT = .1232E-4
MEAN_MOTION_DDOT = 0

CCSDS_OMM_VERS = 2.0
CREATION_DATE  = 
ORIGINATOR     = 

OBJECT_NAME    = HELIOS 1B
OBJECT_ID      = 1999-064A
CENTER_NAME    = EARTH
REF_FRAME      = TEME
TIME_SYSTEM    = UTC
MEAN_ELEMENT_THEORY = SGP/SGP4

EPOCH          = 2026-03-07T07:01:14.225664
MEAN_MOTION    = 14.87688391
ECCENTRICITY   = .00024786
INCLINATION    = 98.1697
RA_OF_ASC_NODE = 328.4657
ARG_OF_PERICENTER = 77.9627
MEAN_ANOMALY   = 282.1866

EPHEMERIS_TYPE = 0
CLASSIFICATION_TYPE = U
NORAD_CAT_ID   = 25977
ELEMENT_SET_NO = 999
REV_AT_EPOCH   = 68490
BSTAR          = .29809173E-3
MEAN_MOTION_DOT = .2657E-4
MEAN_MOTION_DDOT = 0

CCSDS_OMM_VERS = 2.0
CREATION_DATE  = 
ORIGINATOR     = 

OBJECT_NAME    = TERRA
OBJECT_ID      = 1999-068A
CENTER_NAME    = EARTH
REF_FRAME      = TEME
TIME_SYSTEM    = UTC
MEAN_ELEMENT_THEORY = SGP/SGP4

EPOCH          = 2026-03-07T05:54:26.250624
MEAN_MOTION    = 14.61011856
ECCENTRICITY   = .00025508
INCLINATION    = 97.9598
RA_OF_ASC_NODE = 119.7742
ARG_OF_PERICENTER = 157.5114
MEAN_ANOMALY   = 244.7596

EPHEMERIS_TYPE = 0
CLASSIFICATION_TYPE = U
NORAD_CAT_ID   = 25994
ELEMENT_SET_NO = 999
REV_AT_EPOCH   = 39472
BSTAR          = .13605019E-3
MEAN_MOTION_DOT = .623E-5
MEAN_MOTION_DDOT = 0

CCSDS_OMM_VERS = 2.0
CREATION_DATE  = 
ORIGINATOR     = 

OBJECT_NAME    = SL-16 R/B
OBJECT_ID      = 2000-006B
CENTER_NAME    = EARTH
REF_FRAME      = TEME
TIME_SYSTEM    = UTC
MEAN_ELEMENT_THEORY = SGP/SGP4

EPOCH          = 2026-03-07T07:51:55.141056
MEAN_MOTION    = 14.15825740
ECCENTRICITY   = .00169456
INCLINATION    = 71.0011
RA_OF_ASC_NODE = 102.8044
ARG_OF_PERICENTER = 193.5658
MEAN_ANOMALY   = 166.5012

EPHEMERIS_TYPE = 0
CLASSIFICATION_TYPE = U
NORAD_CAT_ID   = 26070
ELEMENT_SET_NO = 999
REV_AT_EPOCH   = 34822
BSTAR          = .36570613E-4
MEAN_MOTION_DOT = .24E-6
MEAN_MOTION_DDOT = 0

CCSDS_OMM_VERS = 2.0
CREATION_DATE  = 
ORIGINATOR     = 

OBJECT_NAME    = TITAN 4B R/B
OBJECT_ID      = 2000-047B
CENTER_NAME    = EARTH
REF_FRAME      = TEME
TIME_SYSTEM    = UTC
MEAN_ELEMENT_THEORY = SGP/SGP4

EPOCH          = 2026-03-07T07:28:11.585280
MEAN_MOTION    = 15.09534346
ECCENTRICITY   = .00383918
INCLINATION    = 67.9897
RA_OF_ASC_NODE = 47.1978
ARG_OF_PERICENTER = 38.2167
MEAN_ANOMALY   = 322.1692

EPHEMERIS_TYPE = 0
CLASSIFICATION_TYPE = U
NORAD_CAT_ID   = 26474
ELEMENT_SET_NO = 999
REV_AT_EPOCH   = 39255
BSTAR          = .39672039E-3
MEAN_MOTION_DOT = .636E-4
MEAN_MOTION_DDOT = 0

CCSDS_OMM_VERS = 2.0
CREATION_DATE  = 
ORIGINATOR     = 

OBJECT_NAME    = ENVISAT
OBJECT_ID      = 2002-009A
CENTER_NAME    = EARTH
REF_FRAME      = TEME
TIME_SYSTEM    = UTC
MEAN_ELEMENT_THEORY = SGP/SGP4

EPOCH          = 2026-03-07T08:05:27.057408
MEAN_MOTION    = 14.39036054
ECCENTRICITY   = .00013331
INCLINATION    = 98.3726
RA_OF_ASC_NODE = 19.9905
ARG_OF_PERICENTER = 83.9642
MEAN_ANOMALY   = 78.8103

EPHEMERIS_TYPE = 0
CLASSIFICATION_TYPE = U
NORAD_CAT_ID   = 27386
ELEMENT_SET_NO = 999
REV_AT_EPOCH   = 25883
BSTAR          = .83088281E-4
MEAN_MOTION_DOT = .214E-5
MEAN_MOTION_DDOT = 0

CCSDS_OMM_VERS = 2.0
CREATION_DATE  = 
ORIGINATOR     = 

OBJECT_NAME    = IDEFIX & ARIANE 42P R/B
OBJECT_ID      = 2002-021B
CENTER_NAME    = EARTH
REF_FRAME      = TEME
TIME_SYSTEM    = UTC
MEAN_ELEMENT_THEORY = SGP/SGP4

EPOCH          = 2026-03-07T06:12:07.794720
MEAN_MOTION    = 14.31024334
ECCENTRICITY   = .00114319
INCLINATION    = 98.5867
RA_OF_ASC_NODE = 4.8938
ARG_OF_PERICENTER = 189.4278
MEAN_ANOMALY   = 170.6692

EPHEMERIS_TYPE = 0
CLASSIFICATION_TYPE = U
NORAD_CAT_ID   = 27422
ELEMENT_SET_NO = 999
REV_AT_EPOCH   = 24367
BSTAR          = .18127828E-3
MEAN_MOTION_DOT = .434E-5
MEAN_MOTION_DDOT = 0

